CCSDS_OMM_VERS = 2.0
CREATION_DATE  = 
ORIGINATOR     = 

OBJECT_NAME    = HTV-X1
OBJECT_ID      = 2025-241A
CENTER_NAME    = EARTH
REF_FRAME      = TEME
TIME_SYSTEM    = UTC
MEAN_ELEMENT_THEORY = SGP/SGP4

EPOCH          = 2026-03-28T21:18:25.876800
MEAN_MOTION    = 15.32431750
ECCENTRICITY   = .00072964
INCLINATION    = 51.6385
RA_OF_ASC_NODE = 340.5549
ARG_OF_PERICENTER = 245.5361
MEAN_ANOMALY   = 114.4859

EPHEMERIS_TYPE = 0
CLASSIFICATION_TYPE = U
NORAD_CAT_ID   = 66174
ELEMENT_SET_NO = 999
REV_AT_EPOCH   = 2388
BSTAR          = .86156569E-4
MEAN_MOTION_DOT = .2368E-4
MEAN_MOTION_DDOT = 0

CCSDS_OMM_VERS = 2.0
CREATION_DATE  = 
ORIGINATOR     = 

OBJECT_NAME    = SZ-21 MODULE
OBJECT_ID      = 2025-246C
CENTER_NAME    = EARTH
REF_FRAME      = TEME
TIME_SYSTEM    = UTC
MEAN_ELEMENT_THEORY = SGP/SGP4

EPOCH          = 2026-03-28T06:35:15.338976
MEAN_MOTION    = 15.69967006
ECCENTRICITY   = .0001568
INCLINATION    = 41.4743
RA_OF_ASC_NODE = 88.8326
ARG_OF_PERICENTER = 210.3682
MEAN_ANOMALY   = 149.7069

EPHEMERIS_TYPE = 0
CLASSIFICATION_TYPE = U
NORAD_CAT_ID   = 66515
ELEMENT_SET_NO = 999
REV_AT_EPOCH   = 2099
BSTAR          = .34891E-3
MEAN_MOTION_DOT = .43062E-3
MEAN_MOTION_DDOT = 0

CCSDS_OMM_VERS = 2.0
CREATION_DATE  = 
ORIGINATOR     = 

OBJECT_NAME    = SHENZHOU-22
OBJECT_ID      = 2025-272A
CENTER_NAME    = EARTH
REF_FRAME      = TEME
TIME_SYSTEM    = UTC
MEAN_ELEMENT_THEORY = SGP/SGP4

EPOCH          = 2026-03-28T21:46:02.673696
MEAN_MOTION    = 15.61593971
ECCENTRICITY   = .00039724
INCLINATION    = 41.4668
RA_OF_ASC_NODE = 91.1438
ARG_OF_PERICENTER = 51.0046
MEAN_ANOMALY   = 309.1146

EPHEMERIS_TYPE = 0
CLASSIFICATION_TYPE = U
NORAD_CAT_ID   = 66645
ELEMENT_SET_NO = 999
REV_AT_EPOCH   = 28083
BSTAR          = .17386378E-3
MEAN_MOTION_DOT = .15066E-3
MEAN_MOTION_DDOT = 0

CCSDS_OMM_VERS = 2.0
CREATION_DATE  = 
ORIGINATOR     = 

OBJECT_NAME    = SOYUZ-MS 28
OBJECT_ID      = 2025-275A
CENTER_NAME    = EARTH
REF_FRAME      = TEME
TIME_SYSTEM    = UTC
MEAN_ELEMENT_THEORY = SGP/SGP4

EPOCH          = 2026-03-28T20:59:21.130368
MEAN_MOTION    = 15.48616916
ECCENTRICITY   = .0006219
INCLINATION    = 51.6344
RA_OF_ASC_NODE = 337.5169
ARG_OF_PERICENTER = 244.1555
MEAN_ANOMALY   = 115.8792

EPHEMERIS_TYPE = 0
CLASSIFICATION_TYPE = U
NORAD_CAT_ID   = 66664
ELEMENT_SET_NO = 999
REV_AT_EPOCH   = 55931
BSTAR          = .21127888E-3
MEAN_MOTION_DOT = .11057E-3
MEAN_MOTION_DDOT = 0

CCSDS_OMM_VERS = 2.0
CREATION_DATE  = 
ORIGINATOR     = 

OBJECT_NAME    = DUPLEX
OBJECT_ID      = 1998-067XS
CENTER_NAME    = EARTH
REF_FRAME      = TEME
TIME_SYSTEM    = UTC
MEAN_ELEMENT_THEORY = SGP/SGP4

EPOCH          = 2026-03-28T20:14:15.748512
MEAN_MOTION    = 15.57497317
ECCENTRICITY   = .00029856
INCLINATION    = 51.6303
RA_OF_ASC_NODE = 333.5600
ARG_OF_PERICENTER = 199.9442
MEAN_ANOMALY   = 160.1434

EPHEMERIS_TYPE = 0
CLASSIFICATION_TYPE = U
NORAD_CAT_ID   = 66906
ELEMENT_SET_NO = 999
REV_AT_EPOCH   = 1811
BSTAR          = .44901713E-3
MEAN_MOTION_DOT = .3331E-3
MEAN_MOTION_DDOT = 0

CCSDS_OMM_VERS = 2.0
CREATION_DATE  = 
ORIGINATOR     = 

OBJECT_NAME    = ISS OBJECT XT
OBJECT_ID      = 1998-067XT
CENTER_NAME    = EARTH
REF_FRAME      = TEME
TIME_SYSTEM    = UTC
MEAN_ELEMENT_THEORY = SGP/SGP4

EPOCH          = 2026-03-28T21:37:09.282432
MEAN_MOTION    = 15.76367324
ECCENTRICITY   = .00059974
INCLINATION    = 51.6244
RA_OF_ASC_NODE = 327.1576
ARG_OF_PERICENTER = 204.4766
MEAN_ANOMALY   = 155.5950

EPHEMERIS_TYPE = 0
CLASSIFICATION_TYPE = U
NORAD_CAT_ID   = 66907
ELEMENT_SET_NO = 999
REV_AT_EPOCH   = 1820
BSTAR          = .14556512E-2
MEAN_MOTION_DOT = .24118E-2
MEAN_MOTION_DDOT = 0

CCSDS_OMM_VERS = 2.0
CREATION_DATE  = 
ORIGINATOR     = 

OBJECT_NAME    = ISS OBJECT XU
OBJECT_ID      = 1998-067XU
CENTER_NAME    = EARTH
REF_FRAME      = TEME
TIME_SYSTEM    = UTC
MEAN_ELEMENT_THEORY = SGP/SGP4

EPOCH          = 2026-03-28T21:31:40.285056
MEAN_MOTION    = 15.76627027
ECCENTRICITY   = .00062222
INCLINATION    = 51.6247
RA_OF_ASC_NODE = 327.1275
ARG_OF_PERICENTER = 204.3125
MEAN_ANOMALY   = 155.7582

EPHEMERIS_TYPE = 0
CLASSIFICATION_TYPE = U
NORAD_CAT_ID   = 66908
ELEMENT_SET_NO = 999
REV_AT_EPOCH   = 1820
BSTAR          = .14825262E-2
MEAN_MOTION_DOT = .248719E-2
MEAN_MOTION_DDOT = 0

CCSDS_OMM_VERS = 2.0
CREATION_DATE  = 
ORIGINATOR     = 

OBJECT_NAME    = SILVERSAT
OBJECT_ID      = 1998-067XV
CENTER_NAME    = EARTH
REF_FRAME      = TEME
TIME_SYSTEM    = UTC
MEAN_ELEMENT_THEORY = SGP/SGP4

EPOCH          = 2026-03-28T21:55:52.386528
MEAN_MOTION    = 15.81917197
ECCENTRICITY   = .00070418
INCLINATION    = 51.6213
RA_OF_ASC_NODE = 325.7273
ARG_OF_PERICENTER = 210.4604
MEAN_ANOMALY   = 149.5990

EPHEMERIS_TYPE = 0
CLASSIFICATION_TYPE = U
NORAD_CAT_ID   = 66909
ELEMENT_SET_NO = 999
REV_AT_EPOCH   = 1822
BSTAR          = .16516213E-2
MEAN_MOTION_DOT = .356924E-2
MEAN_MOTION_DDOT = 0

CCSDS_OMM_VERS = 2.0
CREATION_DATE  = 
ORIGINATOR     = 

OBJECT_NAME    = ISS OBJECT XW
OBJECT_ID      = 1998-067XW
CENTER_NAME    = EARTH
REF_FRAME      = TEME
TIME_SYSTEM    = UTC
MEAN_ELEMENT_THEORY = SGP/SGP4

EPOCH          = 2026-03-28T20:16:08.243040
MEAN_MOTION    = 15.74880247
ECCENTRICITY   = .00063021
INCLINATION    = 51.6233
RA_OF_ASC_NODE = 327.5249
ARG_OF_PERICENTER = 201.5350
MEAN_ANOMALY   = 158.5385

EPHEMERIS_TYPE = 0
CLASSIFICATION_TYPE = U
NORAD_CAT_ID   = 66910
ELEMENT_SET_NO = 999
REV_AT_EPOCH   = 1819
BSTAR          = .13128984E-2
MEAN_MOTION_DOT = .202838E-2
MEAN_MOTION_DDOT = 0

CCSDS_OMM_VERS = 2.0
CREATION_DATE  = 
ORIGINATOR     = 

OBJECT_NAME    = ISS OBJECT XX
OBJECT_ID      = 1998-067XX
CENTER_NAME    = EARTH
REF_FRAME      = TEME
TIME_SYSTEM    = UTC
MEAN_ELEMENT_THEORY = SGP/SGP4

EPOCH          = 2026-03-28T22:02:01.307616
MEAN_MOTION    = 15.88587142
ECCENTRICITY   = .0008876
INCLINATION    = 51.6187
RA_OF_ASC_NODE = 324.2195
ARG_OF_PERICENTER = 215.1159
MEAN_ANOMALY   = 144.9262

EPHEMERIS_TYPE = 0
CLASSIFICATION_TYPE = U
NORAD_CAT_ID   = 66911
ELEMENT_SET_NO = 999
REV_AT_EPOCH   = 1823
BSTAR          = .17927581E-2
MEAN_MOTION_DOT = .546382E-2
MEAN_MOTION_DDOT = 0

CCSDS_OMM_VERS = 2.0
CREATION_DATE  = 
ORIGINATOR     = 

OBJECT_NAME    = ISS OBJECT XY
OBJECT_ID      = 1998-067XY
CENTER_NAME    = EARTH
REF_FRAME      = TEME
TIME_SYSTEM    = UTC
MEAN_ELEMENT_THEORY = SGP/SGP4

EPOCH          = 2026-03-28T20:36:18.550656
MEAN_MOTION    = 15.67599679
ECCENTRICITY   = .00042762
INCLINATION    = 51.6270
RA_OF_ASC_NODE = 329.8999
ARG_OF_PERICENTER = 200.6953
MEAN_ANOMALY   = 159.3871

EPHEMERIS_TYPE = 0
CLASSIFICATION_TYPE = U
NORAD_CAT_ID   = 66912
ELEMENT_SET_NO = 999
REV_AT_EPOCH   = 1815
BSTAR          = .10162185E-2
MEAN_MOTION_DOT = .114101E-2
MEAN_MOTION_DDOT = 0

CCSDS_OMM_VERS = 2.0
CREATION_DATE  = 
ORIGINATOR     = 

OBJECT_NAME    = KNACKSAT-2
OBJECT_ID      = 1998-067XZ
CENTER_NAME    = EARTH
REF_FRAME      = TEME
TIME_SYSTEM    = UTC
MEAN_ELEMENT_THEORY = SGP/SGP4

EPOCH          = 2026-03-28T20:15:13.499136
MEAN_MOTION    = 15.53408087
ECCENTRICITY   = .00100048
INCLINATION    = 51.6323
RA_OF_ASC_NODE = 336.5646
ARG_OF_PERICENTER = 255.1936
MEAN_ANOMALY   = 104.7946

EPHEMERIS_TYPE = 0
CLASSIFICATION_TYPE = U
NORAD_CAT_ID   = 67683
ELEMENT_SET_NO = 999
REV_AT_EPOCH   = 776
BSTAR          = .70231248E-3
MEAN_MOTION_DOT = .45155E-3
MEAN_MOTION_DDOT = 0

